{
  "norad_id": 37836,
  "name": "EUTELSAT 16A",
  "history": [
    {
      "epoch": "2026-03-28T21:42:25.770816Z",
      "apogee_km": 35810.37967942786,
      "perigee_km": 35763.58061590567,
      "latitude_deg": 0.009360408387036835,
      "longitude_deg": 16.03415196481757,
      "height_km": 35807.94445965758,
      "semi_major_axis_km": 42165.117147666766,
      "eccentricity": 0.00055495,
      "inclination_deg": 0.0564,
      "raan_deg": 2.3744,
      "arg_perigee_deg": 9.6536,
      "mean_anomaly_deg": 155.8823,
      "mean_motion_rev_day": 1.00270411
    },
    {
      "epoch": "2026-03-29T02:50:26.153664Z",
      "apogee_km": 35810.32871027797,
      "perigee_km": 35763.58448751424,
      "latitude_deg": -0.028390468098463465,
      "longitude_deg": 15.956225086034216,
      "height_km": 35800.48358730973,
      "semi_major_axis_km": 42165.093598896114,
      "eccentricity": 0.0005543,
      "inclination_deg": 0.0563,
      "raan_deg": 2.4632,
      "arg_perigee_deg": 9.4766,
      "mean_anomaly_deg": 233.1822,
      "mean_motion_rev_day": 1.00270495
    }
  ]
}